[{"OBJECT_NAME":"STARLINK-36071","OBJECT_ID":"2025-278T","EPOCH":"2026-03-09T19:38:25.694016","MEAN_MOTION":15.27568665,"ECCENTRICITY":0.00013435,"INCLINATION":43.0007,"RA_OF_ASC_NODE":113.2174,"ARG_OF_PERICENTER":263.7429,"MEAN_ANOMALY":96.3269,"EPHEMERIS_TYPE":0,"CLASSIFICATION_TYPE":"U","NORAD_CAT_ID":66808,"ELEMENT_SET_NO":999,"REV_AT_EPOCH":1523,"BSTAR":0.0010319124,"MEAN_MOTION_DOT":0.00028233,"MEAN_MOTION_DDOT":0},{"OBJECT_NAME":"FENGYUN 1C DEB","OBJECT_ID":"1999-025AQG","EPOCH":"2026-03-09T10:43:06.043872","MEAN_MOTION":15.25746961,"ECCENTRICITY":0.00178142,"INCLINATION":98.9311,"RA_OF_ASC_NODE":250.2123,"ARG_OF_PERICENTER":328.3876,"MEAN_ANOMALY":31.6286,"EPHEMERIS_TYPE":0,"CLASSIFICATION_TYPE":"U","NORAD_CAT_ID":30674,"ELEMENT_SET_NO":999,"REV_AT_EPOCH":98658,"BSTAR":0.015201752,"MEAN_MOTION_DOT":0.00411052,"MEAN_MOTION_DDOT":0}]
